ONEWEB-0371             
1 49297U 21090U   25291.25847916  .00000011  00000+0 -44409-5 0  9992
2 49297  87.9265 353.0948 0001943 102.0084 258.1266 13.19723825194548
ONEWEB-0372             
1 49298U 21090V   25291.11839066  .00000101  00000+0  21716-3 0  9998
2 49298  87.9207 322.7206 0001825  98.3641 261.7699 13.20769325197887
ONEWEB-0373             
1 49299U 21090W   25291.14535240 -.00000008  00000+0 -50530-4 0  9994
2 49299  87.9209 322.7289 0001909  91.2156 268.9196 13.20769737199078
ONEWEB-0374             
1 49300U 21090X   25291.21640565  .00000071  00000+0  15833-3 0  9996
2 49300  87.9038 337.8982 0001313  89.3200 270.8080 13.14504618195770
ONEWEB-0375             
1 49301U 21090Y   25291.13272940  .00000060  00000+0  11473-3 0  9990
2 49301  87.9209 322.7111 0001690  77.0224 283.1098 13.20769625198571
ONEWEB-0376             
1 49302U 21090Z   25291.18108071  .00000072  00000+0  14668-3 0  9991
2 49302  87.9273 353.0943 0001893 107.2306 252.9034 13.19723663194531
ONEWEB-0377             
1 49303U 21090AA  25291.11867317  .00000023  00000+0  24129-4 0  9990
2 49303  87.9211 322.7106 0002006  90.2121 269.9243 13.20770485198564
ONEWEB-0378             
1 49304U 21090AB  25291.14076736  .00000109  00000+0  23495-3 0  9990
2 49304  87.9217 322.7212 0001723  88.4107 271.7224 13.20770401197834
